Name,Address,Locality,Region,Postal Code,Telephone,Website,Category
Piano,214A W 39th St,"New York, ",NY,10018,(212) 764-8444,http://www.pianosnyc.com,Pianos & Organs
Allegro Pianos,205 W 58th St,"New York, ",NY,10019,(212) 265-2455,http://www.allegropianos.com,Pianos & OrgansMusical Instruments
Richmond Pianos,261 W 35th St,"New York, ",NY,10001,(212) 736-0867,NA,Pianos & OrgansMusical Instruments
Frank & Camilles Keyboard Center of West 57th St,29 W 57th St,"New York, ",NY,10019,(212) 832-8289,http://www.frankandcamilleswest.com,Pianos & OrgansPiano & Organ Moving
Piano Games,"244 W72nd St, #12E","New York, ",NY,10023,(917) 749-2117,http://riversidepiano.com,Pianos & Organs
Beethoven Pianos Inc,211 W 58th St Apt 1,"New York, ",NY,10019,(212) 765-7300,http://www.beethovenpianos.com,Pianos & OrgansPiano & Organ Moving
The Piano Studio,291 Broadway Rm 700,"New York, ",NY,10007,(212) 227-7979,http://pianostudiotribeca.com,Pianos & OrgansMusical Instruments
"Wong, Ray",105 Mulberry St,"New York, ",NY,10013,(646) 613-8581,NA,Pianos & Organs
Rome Piano Co Inc,43 Bowery,"New York, ",NY,10002,(212) 431-4747,NA,Pianos & Organs
Abe Tolchin,732 Broadway,"New York, ",NY,10003,(212) 254-6917,NA,Pianos & OrgansMusical Instruments
Pro Piano,85 Jane St,"New York, ",NY,10014,(212) 206-8794,http://www.propiano.com,Pianos & OrgansMusical Instruments
Renzo Piano Building Workshop,827 Washington St Fl 2,"New York, ",NY,10014,(212) 206-8949,http://rpbw.com,Pianos & OrgansMusical Instruments
Piano Quartet,151 W 19th St,"New York, ",NY,10011,(212) 420-0200,http://www.thepianoquartet.com,Pianos & Organs
A-1 Piano Transport,132 W 22nd St,"New York, ",NY,10011,(646) 336-6890,http://www.a1pianotransport.com,Pianos & Organs
Bosendorfer New York,200 Lexington Ave Suite 902,"New York, ",NY,10016,(800) 684-4080,http://www.diffa.org,Pianos & Organs
Natalia Huang Piano Studio,13 E 37th St Ste 701,"New York, ",NY,10016,(917) 698-1005,http://www.nataliahuangstudio.com,Pianos & OrgansMusical Instruments
Steinway & Sons,1133 Avenue Of The Americas,"New York, ",NY,10036,(212) 764-8401,http://www.steinwayhall.com,Pianos & Organs
PianoPiano,244 W 54th St,"New York, ",NY,10019,(212) 586-9057,http://www.pianorentalny.com,Pianos & OrgansMusical Instruments
Piano/Piano,158 W 55th St,"New York, ",NY,10019,(212) 247-4873,NA,Pianos & Organs
Russotto Nicholas,119 W 56th St,"New York, ",NY,10019,(212) 246-0784,NA,Pianos & Organs
Piano Remittance Corp,730 5th Ave,"New York, ",NY,10019,(212) 888-5888,NA,Pianos & Organs
Steinway Piano Gallery,109 W 57th St,"New York, ",NY,10019,(516) 512-0100,http://steinway.com,Pianos & Organs
Steinway & Sons,109 W 57th St,"New York, ",NY,10019,(212) 246-1100,http://www.steinway.com,Pianos & Organs
E Piano Brokers,232 W 58th St,"New York, ",NY,10019,(212) 246-3335,http://www.beethovenpianos.com,Pianos & OrgansMusical Instruments
Broadway Piano Company,207 W 58th St,"New York, ",NY,10019,(212) 581-5550,http://faustharrisonpianos.com,Pianos & Organs
Park Avenue Pianos,230 Central Park S Suite 9 F,"New York, ",NY,10019,(212) 537-5032,http://www.steinwaygrand.com,Pianos & Organs
Piano Craft,1510 York Ave,"New York, ",NY,10075,(212) 714-2189,http://www.pianocraftman.com,Pianos & OrgansMusical Instruments
NYC Piano Teachers,33 Riverside Dr,"New York, ",NY,10023,(347) 920-8510,http://exelogent.com,Pianos & Organs
Beethoven Pianos Inc,970 Park Ave,"New York, ",NY,10028,(212) 765-7300,NA,Pianos & OrgansMusical Instruments
Piano Plus,135 E 83rd St,"New York, ",NY,10028,(212) 744-8680,http://www.eastsidecas.com,Pianos & Organs
Hiromi Kasuga Piano Studio,307 E 85th St,"New York, ",NY,10028,(917) 459-1228,NA,Pianos & OrgansMusic Schools
Piano Man,315 E 86th St,"New York, ",NY,10028,(212) 987-5821,http://www.brandyspianobar.com,Pianos & Organs
Frances Kramer Piano Studio,321 E 88th St,"New York, ",NY,10128,(212) 426-0183,http://franceskramerpianostudio.com,Pianos & Organs
Pro Piano,1225 Park Ave,"New York, ",NY,10128,(212) 206-8794,http://www.propiano.com,Pianos & Organs
Piano Outreach Of New York,461 Central Park W Apt 3A,"New York, ",NY,10025,(212) 386-2274,http://www.pianooutreach.org,Pianos & Organs
Bogota Festival Internacional,38 W 129th St,"New York, ",NY,10027,(646) 408-5183,http://bogotapianofestival.org,Pianos & Organs
Big Wrench Piano Care,177 Smith St,"Brooklyn, ",NY,11201,(718) 599-9434,http://www.bigwrench.com,Pianos & Organs
String Theory Piano,NA,"New York, ",NY,10023,(212) 496-4545,NA,Pianos & Organs
Loro Piano Retail Store,821 Madison Ave,"New York, ",NY,10065,(212) 980-7961,http://www.loropiana.com,Pianos & OrgansMusical Instruments
Lena Lin's Piano Studio,77 Fulton St # 22L,"New York, ",NY,10038,(212) 267-2502,NA,Pianos & Organs
Piano Craft,245 W 29th St,"New York, ",NY,10001,(800) 871-6449,http://www.pianorestorationwestchester.com,Pianos & Organs
Brant Ira Piano,216 E 74th St,"New York, ",NY,10021,(212) 249-8210,NA,Pianos & OrgansMusical Instruments
Piano Aili,500 E 85th St Apt 21L,"New York, ",NY,10028,(212) 737-4336,NA,Pianos & Organs
Bechstein Piano Centre,207 W 58th St,"New York, ",NY,10019,(212) 581-5550,http://bechstein-america.com,Pianos & OrgansMusical Instruments
Absolute Piano,142 Plymouth St,"Brooklyn, ",NY,11201,(718) 875-2600,http://www.absolutepianony.com,Piano Parts & Supplies
A C Pianocraft Inc,333 W 52nd St,"New York, ",NY,10019,(212) 254-1840,http://www.acpianocraft.com,"Pianos & Organ-Tuning, Repair &..."
AArt In America Piano Company,300 Observer Highway - 4th Fl,"Hoboken, ",NJ,07030,(201) 707-0738,http://www.aartinamericapiano.com,Piano Parts & SuppliesPianos & Organs
Bondy Piano,529 W 42nd St,"New York, ",NY,10036,(212) 279-6683,http://www.bondypiano.com,"Pianos & Organ-Tuning, Repair &..."
Faust Harrison Pianos,207 W 58th St,"New York, ",NY,10019,(212) 489-3600,http://www.faustharrisonpianos.com,"Pianos & Organ-Tuning, Repair &..."
Music To Your Home,235 E 95th St,"New York, ",NY,10128,(646) 606-2515,http://www.musictoyourhome.com,Teaching AgenciesViolins
Piano Masters - The New Piano School,141 Atlantic Ave,"Brooklyn, ",NY,11201,(718) 852-1200,http://www.pianomastersnyc.com,Music Instruction-Instrumental
Drasche Pianos,261 W 35th St,"New York, ",NY,10001,(212) 736-2190,http://draschepianos.com,Piano Parts & SuppliesPianos & Organs
Wagman Piano Services,41 Monroe Street,"New York, ",NY,10002,(813) 352-3744,http://wagmanpianoservices.com,"Pianos & Organ-Tuning, Repair &..."
Kathryn Brickell Music,27 W 55th St,"New York, ",NY,10019,(212) 452-2299,http://www.music-instruction.com,Music Instruction-Instrumental
Bruce Greig's Pianos & Svc,15 W 74th St,"New York, ",NY,10023,(212) 724-1203,NA,"Pianos & Organ-Tuning, Repair &..."
City Strings & Piano New York,101 W End Ave,"New York, ",NY,10023,(646) 580-9099,http://www.citystrings.com/nyc,Music Instruction-Instrumental
Paul Sheftel,20 E 88th St # 1B,"New York, ",NY,10128,(212) 534-3631,http://paulsheftel.com,Music Instruction-Instrumental
Di Wu Piano Studio,NA,"New York, ",NY,10023,(347) 927-9880,http://www.diwupiano.com,Music Instruction-Instrumental
Michelman Piano Service,NA,"New York, ",NY,10040,(917) 620-4313,http://www.adammichelman.com,"Pianos & Organ-Tuning, Repair &..."
Bruser Madeline Piano Studio,801 W End Ave,"New York, ",NY,10025,(212) 678-9215,http://www.artofpracticing.com,Music Instruction-Instrumental
Tri Arts,219 W 81st St,"New York, ",NY,10024,(212) 874-2787,NA,"Pianos & Organ-Tuning, Repair &..."
A 440 Audio,24 W 30th St,"New York, ",NY,10001,(212) 685-6828,http://a440.biz,"Pianos & Organ-Tuning, Repair &..."
The Piano Factory - Steinway Pianos NYC,205 W 58th St,"New York, ",NY,10019,(212) 489-0666,http://steinways.com,Piano Parts & Supplies
A-1 Music Co,186 1st Ave Frnt 1,"New York, ",NY,10009,(212) 677-0872,NA,"Pianos & Organ-Tuning, Repair &..."
Suzanne Fowler,125 E 24th St,"New York, ",NY,10010,(212) 253-0900,NA,"Pianos & Organ-Tuning, Repair &..."
Marco De Lellis Piano,21 W 31st St # 05,"New York, ",NY,10001,(212) 575-4949,http://pianoworkshopny.com,"Pianos & Organ-Tuning, Repair &..."
Del Cesca,320 5th Ave Suite 1001,"New York, ",NY,10001,(646) 213-3755,NA,"Pianos & Organ-Tuning, Repair &..."
Happy Piano Tuner Scot Lockhart,447 W 45th St,"New York, ",NY,10036,(212) 489-6171,http://www.happypianotuner.com,"Pianos & Organ-Tuning, Repair &..."
Klavierhaus Inc,549 W 52nd St,"New York, ",NY,10019,(212) 245-4535,http://www.klavierhaus.com,"Pianos & Organ-Tuning, Repair &..."
Klavierhaus Inc,211 W 58th St Ste 1,"New York, ",NY,10019,(212) 245-4535,http://www.klavierhaus.com,"Pianos & Organ-Tuning, Repair &..."
Circles International,1 Lincoln Plz # 20,"New York, ",NY,10023,(212) 799-9300,http://torrenceyaeger.com,"Pianos & Organ-Tuning, Repair &..."
Giller Evan,542 E 79th St Apt 1L,"New York, ",NY,10075,(212) 249-4398,NA,"Pianos & Organ-Tuning, Repair &..."
La Gamma Nicholas A MD,115 E 87th St,"New York, ",NY,10128,(212) 369-3674,NA,"Pianos & Organ-Tuning, Repair &..."
Pascone Romeo,1380 Riverside Dr,"New York, ",NY,10033,(212) 568-6190,NA,"Pianos & Organ-Tuning, Repair &..."
J P Organ Service,57 Park Ter W,"New York, ",NY,10034,(212) 942-2437,NA,"Pianos & Organ-Tuning, Repair &..."
Luis Cruz Piano Tuning & Repair,NA,"New York, ",NY,10006,(917) 675-6285,NA,"Pianos & Organ-Tuning, Repair &..."
Magic Piano Movers,NA,"Forest Hills, ",NY,11375,(718) 530-0571,http://magicpianomovers.wix.com/2000,Piano & Organ MovingDelivery Service
Del Piano G,415 Baldwin Ave Apt 1L,"Jersey City, ",NJ,07306,(201) 963-7869,http://www.delposto.com,Pianos & Organs
Hammond Organ Authorized Sales & Service,1150 Elizabeth St,"Jersey City, ",NJ,07306,(800) 492-4588,NA,Pianos & Organs
Steinway & Sons,STEINWAY Ave,"Astoria, ",NY,11102,(718) 721-2600,http://www.steinway.com,Pianos & Organs
Red Piano Records,190 17th St,"Brooklyn, ",NY,11215,(718) 499-9051,NA,Pianos & Organs
A C Pianocraft Inc,42 24th St,"Long Island City, ",NY,11101,(718) 361-9112,NA,Pianos & Organs
Brooklyn Piano,355 Clinton Ave,"Brooklyn, ",NY,11238,(347) 623-3958,http://www.brooklynpiano.com,"Pianos & Organ-Tuning, Repair &..."
Jesse Wallace Drums,2409 41st Ave,"Long Island City, ",NY,11101,(973) 903-4597,http://www.jessewallacedrums.com,Musical Instrument Supplies &...
Rhapsody Piano Tuning and Repair NYC,NA,NA,NA,NA,(917) 449-6283,NA,Piano Parts & Supplies
Big Wrench Piano Care,556 State St,"Brooklyn, ",NY,11217,(718) 599-9434,http://bigwrench.com,"Pianos & Organ-Tuning, Repair &..."
A C Pianocraft Inc,"42-24 Orchard Street, Suite 4B","Long Island City, ",NY,11101,(718) 361-9112,http://www.acpianocraft.com,"Pianos & Organ-Tuning, Repair &..."
Brooklyn Piano,344 Livingston St Apt 3,"Brooklyn, ",NY,11217,(347) 623-3958,http://www.brooklynpiano.com,"Pianos & Organ-Tuning, Repair &..."
John Klauder Pipe Organ Svc,233 Butler St,"Brooklyn, ",NY,11217,(718) 797-1425,http://johnklauder.com,"Pianos & Organ-Tuning, Repair &..."
Konzelman Pipe Organs,720 Monroe St,"Hoboken, ",NJ,07030,(201) 216-0288,NA,"Pianos & Organ-Tuning, Repair &..."
Art In America Piano Svc,720 Monroe St,"Hoboken, ",NJ,07030,(201) 406-2594,NA,"Pianos & Organ-Tuning, Repair &..."
Ken Gerber,271 9th St,"Brooklyn, ",NY,11215,(718) 965-4525,http://www.gerberbars.com,"Pianos & Organ-Tuning, Repair &..."
"De Lia, Robert P",278 Grant Ave,"Jersey City, ",NJ,07305,(201) 451-5665,NA,"Pianos & Organ-Tuning, Repair &..."
New York Piano Service,NA,NA,NA,NA,(917) 992-0210,http://www.newyorkpianoservice.com,"Pianos & Organ-Tuning, Repair &..."
Supreme Pianos Of New York Corp,10221 63rd Rd,"Forest Hills, ",NY,11375,(718) 896-9442,http://supremepianos.com,Pianos & Organs
Piano Rotation,9002 Atlantic Ave,"Ozone Park, ",NY,11416,(718) 322-0737,http://www.frankandcamilleswest.com,Pianos & Organs
Boston Piano Co,37 E 19th St Apt 11,"Brooklyn, ",NY,11226,(718) 721-7711,NA,Pianos & Organs
Frank and Camilles West Piano Store,9002 Atlantic Ave,"Ozone Park, ",NY,11416,(718) 322-0737,http://www.frankandcamilleswest.com,Pianos & Organs
Steinway & Sons,1 Steinway Pl,"Astoria, ",NY,11105,(718) 545-1002,http://www.steinway.com,Pianos & OrgansPiano Parts & Supplies
Abard Piano Co,1361 61st St,"Brooklyn, ",NY,11219,(718) 436-8078,NA,Pianos & OrgansMusical Instruments
Piano Ocfemia Mariagrace,8811 Elmhurst Ave,"Elmhurst, ",NY,11373,(718) 478-5132,NA,Pianos & Organs
Boston Piano Co,1 Steinway Pl,"Astoria, ",NY,11105,(718) 721-2600,http://steinway.com,Pianos & Organs
Beethoven Pianos,2403 3rd Ave,"Bronx, ",NY,10451,(718) 585-9182,http://www.beethovenpianos.com,Pianos & OrgansMusical Instruments
Amadeus Piano,568 Broad Ave,"Ridgefield, ",NJ,07657,(201) 941-6358,http://amadeuspiano.net,Pianos & OrgansMusical Instruments
Boston Piano Co,3711 19th Ave,"Astoria, ",NY,11105,(718) 721-7711,http://steinway.com,Pianos & Organs
Pianoland,2527 65th St,"Brooklyn, ",NY,11204,(718) 376-2415,http://www.pianolandbrooklyn.blogspot.com,"Pianos & Organ-Tuning, Repair &..."
Swan Piano Co,4712 Greenpoint Ave,"Sunnyside, ",NY,11104,(718) 729-2696,NA,"Pianos & Organ-Tuning, Repair &..."
Uma's Piano Lessons,1730 E 14th St,"Brooklyn, ",NY,11229,(202) 569-1840,http://www.umapiano.com,Music Instruction-Instrumental
Sam Ash Music,2600 Flatbush Ave,"Brooklyn, ",NY,11234,(718) 951-3888,NA,Musical InstrumentsPianos & Organs
Expert Piano Movers,7215 48th Ave,"Woodside, ",NY,11377,(718) 639-1111,http://www.bigpianomoversofqueens.com,"Pianos & Organ-Tuning, Repair &..."
Music School of New York City,98-05 67th Ave #14E,"Rego Park, ",NY,11374,(917) 710-7175,http://www.musicschoolofnewyorkcity.com,Music Schools
The Music Box School,9402 Fort Hamilton Pkwy,"Brooklyn, ",NY,11209,(718) 333-5071,http://www.musicboxschool.com,Music SchoolsGuitars & Amplifiers
Judith Watson's Piano Studio,8375 118th St,"Kew Gardens, ",NY,11415,(718) 441-9159,http://www.judywatsonpianoteacher.com,Music Instruction-Instrumental
Giglio Piano Service,7419 5th Ave,"North Bergen, ",NJ,07047,(201) 869-6867,NA,"Pianos & Organ-Tuning, Repair &..."
Rudy's Pianos,2403 3rd Ave,"Bronx, ",NY,10451,(718) 401-7159,http://www.beethovenpianos.com,"Pianos & Organ-Tuning, Repair &..."
Piano lessons in Brooklyn,536 Brooklyn ave,"brooklyn, ",NY,11225,(917) 442-5331,http://www.emilioteubal.com/lessons,Music Schools
Musication Inc,221 E 18th St Apt 1G,"Brooklyn, ",NY,11226,(347) 913-3154,http://www.musication.nyc,Music Instruction-Instrumental
Vazopolos Piano Studio,34 Avenue B,"Bayonne, ",NJ,07002,(201) 823-9304,http://thevazopolosschoolofmusic.com,Music Instruction-Instrumental
Miriam Pellicer School of Piano,7715 Bergenline Ave,"North Bergen, ",NJ,07047,(201) 854-8543,NA,Music Instruction-Instrumental
Piano Masters,276 79th St,"Brooklyn, ",NY,11209,(718) 836-4313,http://www.pianomastersnyc.com,Music Instruction-Instrumental
Guitar Workshop,1416 Avenue J,"Brooklyn, ",NY,11230,(718) 258-8705,http://steveadelson.com,Music Instruction-InstrumentalMusicians
PianoVerse,8207 Northern Blvd,"Jackson Heights, ",NY,11372,(718) 803-3322,http://www.pianoverse.com,Music Instruction-Instrumental
Music Box School Pf Music,425 101st St,"Brooklyn, ",NY,11209,(347) 264-4329,http://musicboxschool.com,Music Instruction-Instrumental
Shuai Piano,200 Grand Cove Way.,"Edgewater, ",NJ,07020,(917) 886-1902,http://www.shuaipiano.com,Music SchoolsTutoring
"Laghezza, Roger J",3820 29th St,"Long Island City, ",NY,11101,(718) 729-5595,NA,"Pianos & Organ-Tuning, Repair &..."
Fairview Piano Svc,384 Fairview Ave,"Fairview, ",NJ,07022,(201) 943-3410,http://www.njtune.com,"Pianos & Organ-Tuning, Repair &..."
Martin A N,10518 Otis Ave,"Corona, ",NY,11368,(718) 271-8088,NA,"Pianos & Organ-Tuning, Repair &..."
Reverberatons 88,9134 71st Rd,"Forest Hills, ",NY,11375,(888) 502-4545,NA,"Pianos & Organ-Tuning, Repair &..."
Wot Tuning,1675 E 18th St,"Brooklyn, ",NY,11229,(561) 568-6254,http://wottuning.us,"Pianos & Organ-Tuning, Repair &..."
Pico's Piano Svc,570 Targee St,"Staten Island, ",NY,10304,(718) 727-1129,NA,"Pianos & Organ-Tuning, Repair &..."
Piano And Music Park Co,16001 Horace Harding Expy,"Fresh Meadows, ",NY,11365,(718) 661-3689,NA,Pianos & Organs
Maestro Pianos Co,14115 72nd Dr,"Flushing, ",NY,11367,(718) 261-3171,http://www.maestropianos.com,Pianos & Organs
Song Piano Inc,3833 150th St,"Flushing, ",NY,11354,(718) 961-8800,NA,Pianos & Organs
Altenburg Piano House,1150 E Jersey St,"Elizabeth, ",NJ,07201,(908) 351-2000,http://www.altenburgpiano.com,Pianos & OrgansMusic Sheet
Piano Craft,2928 W 5th St Ste 17G,"Brooklyn, ",NY,11224,(212) 714-2189,http://pianocraftman.com,Pianos & Organs
Ralph's Pianotuner & Repair,2766 E 64th St,"Brooklyn, ",NY,11234,(718) 338-5685,http://www.ralphspianos.com,Pianos & Organs
Hwang Piano Music Inc,3908 Janet Pl,"Flushing, ",NY,11354,(718) 539-5700,NA,Pianos & OrgansMusical Instruments
Koshevatsky Jan,132 Corbin Pl,"Brooklyn, ",NY,11235,(718) 436-8078,NA,Pianos & Organs
Affordable Piano,3091 Brighton 3rd St,"Brooklyn, ",NY,11235,(718) 615-9475,NA,Pianos & OrgansMusical Instruments
K S Piano Corp,14901 Northern Blvd,"Flushing, ",NY,11354,(800) 724-5378,NA,Pianos & OrgansMusical Instruments
Song Piano Inc,16110 Northern Blvd Ste 3,"Flushing, ",NY,11358,(718) 961-8800,NA,Pianos & Organs
Nicholas Vigna Piano,115 Commerce St,"Staten Island, ",NY,10314,(718) 442-3723,NA,Pianos & Organs
Rodgers Organs,1150 E Jersey St,"Elizabeth, ",NJ,07201,(908) 351-2000,NA,Pianos & Organs
Piano A,2 Wisse Ct,"Lodi, ",NJ,07644,(973) 472-2050,NA,Pianos & Organs
Piano Lessons,385 Turrell Ave,"South Orange, ",NJ,07079,(973) 763-3471,NA,Pianos & OrgansMusic Schools
Piano Harry,947 Edison Ave,"Bronx, ",NY,10465,(718) 239-6973,NA,Pianos & Organs
West Side Piano,135 W 225th St,"Bronx, ",NY,10463,(347) 332-4229,http://www.westsidepiano.com,Pianos & Organs
Song Piano,95 S Dean St,"Englewood, ",NJ,07631,(201) 569-7733,http://www.songpiano.us,Pianos & Organs
Isaac Song,95 S Dean St,"Englewood, ",NJ,07631,(201) 569-7733,NA,Pianos & Organs
Piano Victor,553 Northumberland Rd,"Teaneck, ",NJ,07666,(201) 836-0340,NA,Pianos & Organs
Joan Conviser Piano Teacher,174 Valley Rd,"Montclair, ",NJ,07042,(973) 707-7450,NA,Pianos & Organs
Melody Group Inc,13515 38th Ave,"Flushing, ",NY,11354,(718) 961-3080,NA,Pianos & OrgansMusical Instruments
Song of Songs Group Inc,17176 46th Ave,"Flushing, ",NY,11358,(718) 321-3878,http://www.songofsongsny.com/default.asp,Music Instruction-Instrumental
"Hand Made Imports, Inc.",32 Irving Avenue,"Englewood Cliffs, ",NJ,07632,(201) 264-2433,http://www.handmadeimportsinc.com,"Pianos & Organ-Tuning, Repair &..."
David Estey Piano Service,183 Monroe St,"Passaic, ",NJ,07055,(973) 471-8533,http://davidesteypianoservice.com,"Pianos & Organ-Tuning, Repair &..."
CJC Music School,705 Grand Ave,"Ridgefield, ",NJ,07657,(201) 994-9996,http://www.cjcmusic.org,ContainersMusical Instruments
Valentina's Piano Lessons,303 Harmon Avenue,"Fort Lee, ",NJ,07024,(201) 334-8337,http://www.valsmusic.net,Educational ServicesMusic Schools
Leslie Austin Piano Studio,23 Fairmount Terrace,"W. Orange, ",NJ,07052,(734) 716-2373,NA,Teaching AgenciesMusical Instruments
Nancy M Hazzard,1 Ruth Pl,"Staten Island, ",NY,10305,(718) 979-5154,NA,"Pianos & Organ-Tuning, Repair &..."
La Gamma Victor Piano Tuning & Repair,1819 Lurting Ave,"Bronx, ",NY,10461,(718) 931-9122,NA,"Pianos & Organ-Tuning, Repair &..."
The Renaissance Piano,3316 214th St,"Bayside, ",NY,11361,(914) 637-9666,http://www.renaissancepianos.com,"Pianos & Organ-Tuning, Repair &..."
Hana Music,43 Broad Ave,"Palisades Park, ",NJ,07650,(201) 943-7782,http://hanamusicnj.com,Music Instruction-Instrumental
Vien Piano,227 Grand Ave,"Palisades Park, ",NJ,07650,(201) 947-0025,NA,Music Instruction-Instrumental
Cho M H Piano Studio,127 Richmond Hill Rd,"Staten Island, ",NY,10314,(718) 982-7205,NA,Music Instruction-Instrumental
Frankie's Express,204 Midland Ave,"Garfield, ",NJ,07026,(973) 473-0378,NA,MoversPianos & Organs
piano lessons,25 Cardinal Lane,"Staten Island, ",NY,10306,(718) 288-1489,https://www.facebook.com/yourpianoschool,TutoringPianos & Organs
Bayside Music Inc,21339 40th Ave,"Bayside, ",NY,11361,(718) 279-0890,http://www.yelp.com/biz/bayside-music-bayside-2,Musical Instrument Supplies &...
Ira Malek Player Pianos,3801 Shore Parkway,"Brooklyn, ",NY,11235,(917) 231-4247,http://www.iramalekplayerpianos.com,Piano Parts & Supplies
Mastercraft Piano Co,13244 58th Rd,"Flushing, ",NY,11355,(718) 343-5140,http://www.mastercraftpianocompany.com,"Pianos & Organ-Tuning, Repair &..."
A-440 Piano Tuning,14425 33rd Ave,"Flushing, ",NY,11354,(718) 461-3011,NA,"Pianos & Organ-Tuning, Repair &..."
Moon's Piano Tuning & Repair,3219 149th St,"Flushing, ",NY,11354,(718) 445-0364,NA,"Pianos & Organ-Tuning, Repair &..."
M P H Tunning,1091 E Grand St,"Elizabeth, ",NJ,07201,(908) 469-0239,NA,"Pianos & Organ-Tuning, Repair &..."
Chip Dee Music Inc,195 Boulevard,"Hasbrouck Heights, ",NJ,07604,(201) 288-8245,http://www.chipdeeacademyofmusic.com,Music Instruction-Instrumental
Beaty & Associates,452 Central Ave,"Orange, ",NJ,07050,(973) 672-3735,NA,"Pianos & Organ-Tuning, Repair &..."
Wayne Smagalski,5 Blue Ridge Rd,"Lodi, ",NJ,07644,(201) 712-9477,NA,"Pianos & Organ-Tuning, Repair &..."
American Piano Services,44 Grand Ave,"Hackensack, ",NJ,07601,(201) 489-3142,NA,"Pianos & Organ-Tuning, Repair &..."
American Piano Covers,451 Getty Ave,"Clifton, ",NJ,07011,(973) 246-9144,NA,Pianos & OrgansMusical Instruments
Pianolessonsnj.Com,43 Conforti Ave # 23,"West Orange, ",NJ,07052,(973) 325-7721,http://www.pianolessonsnj.com,Pianos & Organs
Gregory Baron,120 Wabash Ave,"Clifton, ",NJ,07011,(973) 546-2990,NA,"Pianos & Organ-Tuning, Repair &..."
Lord Piano Svc,35 Lakeview Pl,"Verona, ",NJ,07044,(973) 239-0098,NA,"Pianos & Organ-Tuning, Repair &..."
Olive Tree Music Academy,10 Park Place,"Verona, ",NJ,07044,(973) 559-2203,http://www.olivetreemusicacademy.com,Pianos & OrgansViolinsMusic Schools
Warehouse Piano Outlet,776 Bloomfield Ave,"Verona, ",NJ,07044,(973) 239-4191,http://warehousepiano.com,"Pianos & Organ-Tuning, Repair &..."
Palomba Academy,974 E Gun Hill Rd,"Bronx, ",NY,10469,(718) 882-3700,NA,Music Instruction-Instrumental
Peragallo Pipe Organ Co,306 Buffalo Ave,"Paterson, ",NJ,07503,(973) 684-3414,http://www.peragallo.com,"Pianos & Organ-Tuning, Repair &..."
Northshore Piano Service,78 Steamboat RD,"Great Neck, ",NY,11024,(516) 498-8863,NA,"Pianos & Organ-Tuning, Repair &..."
David T Stone Violins,5629 University Way NE,"Seattle, ",WA,98105,(206) 504-1627,http://www.angieslist.com/companylist/us/wa/seattle/david-t-stone-violins-reviews-2535527.htm,"Pianos & Organ-Tuning, Repair &..."
Sherman Clay,1624 4th Ave,"Seattle, ",WA,98101,(206) 682-7666,NA,Pianos & OrgansMusical Instruments
Steinway & Sons,1218 3rd Ave,"Seattle, ",WA,98101,(206) 624-0921,http://steinway.com,Pianos & Organs
Seattle Piano Gallery,2230 8th Ave,"Seattle, ",WA,98121,(206) 282-7101,NA,Pianos & Organs
Jesse Myers Piano Studio,2514 E Pine St,"Seattle, ",WA,98122,(206) 909-2993,http://www.seattlepianoteacher.com,Pianos & Organs
Understanding Basic Piano,2226 Eastlake Ave E,"Seattle, ",WA,98102,(206) 745-0160,http://ubpiano.com,Pianos & Organs
Rondello Piano Studio,4719 9th Ave NE,"Seattle, ",WA,98105,(206) 858-6355,NA,Pianos & Organs
Organ Center,NA,"Seattle, ",WA,98101,(206) 782-8118,NA,Pianos & Organs
Organilicious,NA,"Seattle, ",WA,98109,(206) 327-7434,NA,Pianos & Organs
Classical Grands,9077 Holman Rd NW,"Seattle, ",WA,98117,(206) 297-6717,http://www.classicalgrands.com,Pianos & OrgansMusical Instruments
Melanie Barker Piano Studio,1805 38th Ave,"Seattle, ",WA,98122,(206) 905-9545,NA,Pianos & OrgansMusic Schools
Piano Instructor,8644 20th Ave SW,"Seattle, ",WA,98106,(206) 763-2731,NA,Pianos & Organs
Jesse Myers Piano Studio,608 Belmont Ave E # 4,"Seattle, ",WA,98102,(206) 909-2993,http://seattlepianoteacher.com,Pianos & Organs
A 1 Piano Sales & Rental,7020 Greenwood Ave N,"Seattle, ",WA,98103,(206) 783-7055,http://www.a-1pianos.net,Pianos & Organs
Pettijohn Piano Studio,8532 Midvale Ave N,"Seattle, ",WA,98103,(206) 228-8625,NA,Pianos & Organs
Wright Marsha Piano Studio,11509 34th Ave NE,"Seattle, ",WA,98125,(206) 323-7454,http://www.marshawrightpiano.com,Music SchoolsMusical Instruments
Wright Marsha Piano Studio,3180 NW 75th St,"Seattle, ",WA,98117,(206) 602-2145,http://www.marshawrightpiano.com,Music Schools
Sodo Pianos,3429 Airport Way S Ste 12A,"Seattle, ",WA,98134,(425) 298-5440,http://www.sodopianos.com,"Pianos & Organ-Tuning, Repair &..."
The Gift of Music Piano Studio,1122 N 90th St,"Seattle, ",WA,98103,(206) 783-4112,http://www.giftofmusicpianostudio.net,Music SchoolsMusical Instruments
Classical Grands,1900 4th Ave,"Seattle, ",WA,98101,(206) 297-6717,http://www.classicalgrands.com,Piano Parts & SuppliesPianos & Organs
Blind Mike's Piano Service,211 N 87th St,"Seattle, ",WA,98103,(206) 789-2632,NA,"Pianos & Organ-Tuning, Repair &..."
Pro Piano Move,PO Box 60053,"Seattle, ",WA,98160,(206) 396-6358,http://www.propianomove.com,MoversMoving Services-Labor & Materials
Wright Marsha Piano Studio,3810 NE 75th St,"Seattle, ",WA,98115,(206) 323-7454,http://www.marshawrightpiano.com,Music Instruction-Instrumental
Crescendo Music,11515 9th Ave NE,"Seattle, ",WA,98125,(206) 364-2349,NA,Music SheetPianos & Organs
"Brewer, Jill E: Brewer, Jill E",11515 9th Ave NE,"Seattle, ",WA,98125,(206) 364-2349,http://www.skookumbrewing.com,Music Instruction-Instrumental
Faris Piano Service,NA,"Seattle, ",WA,98133,(206) 417-6303,NA,"Pianos & Organ-Tuning, Repair &..."
Stephanie Emery Piano Instruction,NA,"Seattle, ",WA,98126,(206) 613-9123,http://www.stephanieemerymusic.com/pages/Music.html,Children's Instructional Play Programs
Bear Piano Svc,3958 SW Ida St,"Seattle, ",WA,98136,(206) 406-5576,http://bearpiano.com,"Pianos & Organ-Tuning, Repair &..."
Jack Lofton Piano Technician,8540 18th Ave NW,"Seattle, ",WA,98117,(206) 706-9383,NA,"Pianos & Organ-Tuning, Repair &..."
Davis Piano SVC,10630 16th Ave SW,"Seattle, ",WA,98146,(206) 244-8774,http://davispiano.com,"Pianos & Organ-Tuning, Repair &..."
Alfred Caprio Piano Studio,6545 9th Ave NW,"Seattle, ",WA,98117,(206) 789-9433,NA,Music Instruction-Instrumental
Davis Jeffery A,9854 Occidental Ave S,"Seattle, ",WA,98108,(206) 763-0337,http://www.jefferydavis.com,"Pianos & Organ-Tuning, Repair &..."
Marceau & Assoc Pipe Organ,5113 Russell Ave NW,"Seattle, ",WA,98107,(206) 521-0954,http://marceaupipeorgans.com,Musical Instrument Supplies &...
Studio Instrument Rentals,3631 Interlake Ave N,"Seattle, ",WA,98103,(206) 782-6800,http://www.sir-usa.com,Musical Instrument Rental
Weeks Richard N Piano Service,1215 W Armour St,"Seattle, ",WA,98119,(206) 283-5928,http://www.weeksmusic.com,"Pianos & Organ-Tuning, Repair &..."
McIntyre Organ Repair Service,11782 Sand Point Way NE,"Seattle, ",WA,98125,(206) 364-3615,http://www.seattleorganrepair.com,"Pianos & Organ-Tuning, Repair &..."
Robert Samuelson Piano Technician,1515 E Union St #203,"Seattle, ",WA,98122,(206) 325-1752,http://www.pianotuned.net,"Pianos & Organ-Tuning, Repair &..."
Ebony & Ivory Piano Tuning,2307 E Fir St Apt 4,"Seattle, ",WA,98122,(206) 324-3595,NA,"Pianos & Organ-Tuning, Repair &..."
Bob Dillinger Piano Service,1600 Dexter Ave N,"Seattle, ",WA,98109,(206) 381-3074,http://dillingerpiano.com,"Pianos & Organ-Tuning, Repair &..."
Jeremy Kammerer Reasonable,5646 32nd Ave SW,"Seattle, ",WA,98126,(206) 935-1881,NA,"Pianos & Organ-Tuning, Repair &..."
Spiel Piano Service,5426 45th Ave SW,"Seattle, ",WA,98136,(206) 938-8303,NA,"Pianos & Organ-Tuning, Repair &..."
A-440 Piano Tuning & Repair,2916 NE 55th St,"Seattle, ",WA,98105,(206) 527-9428,NA,"Pianos & Organ-Tuning, Repair &..."
Willey Piano Tuning,19232 15th Ave NE,"Seattle, ",WA,98155,(206) 307-4533,http://www.willeypianotuning.com,"Pianos & Organ-Tuning, Repair &..."
Gill Michael C Piano Tuning,211 N 87th St,"Seattle, ",WA,98103,(206) 789-2632,NA,"Pianos & Organ-Tuning, Repair &..."
Michael C Gill Piano Tuning,211 N 87th St,"Seattle, ",WA,98103,(206) 789-2632,NA,"Pianos & Organ-Tuning, Repair &..."
Whyte George J,8001 Sand Point Way NE,"Seattle, ",WA,98115,(206) 524-0418,NA,"Pianos & Organ-Tuning, Repair &..."
Paul Scott Piano Tuner,2831 NW 91st St,"Seattle, ",WA,98117,(206) 784-4411,NA,"Pianos & Organ-Tuning, Repair &..."
McMorrow Edward J Rtt,NA,"Seattle, ",WA,98101,(206) 343-9901,NA,"Pianos & Organ-Tuning, Repair &..."
Karabinus Audrey Rpt,NA,"Seattle, ",WA,98101,(206) 783-6920,NA,"Pianos & Organ-Tuning, Repair &..."
Vintage Pianos,NA,NA,NA,NA,(425) 462-1011,http://www.pianotom.net,Musical Instruments
Jeff Davis Piano Shop,NA,NA,NA,NA,(206) 763-0337,http://www.jefferydavis.com,"Pianos & Organ-Tuning, Repair &..."
Pianos Allegra,NA,"Shoreline, ",WA,98133,(425) 221-1306,NA,"Pianos & Organ-Tuning, Repair &..."
Sherman Clay,1000 Bellevue Way NE,"Bellevue, ",WA,98004,(425) 454-0634,NA,Pianos & OrgansMusical Instruments
Classic Pianos,10635 NE 8th St Ste 102,"Bellevue, ",WA,98004,(425) 462-1888,http://classicpiano.com,Pianos & Organs
Steinway & Sons,13500 Bel Red Rd,"Bellevue, ",WA,98005,(425) 641-4376,http://www.steinwayseattle.com,Pianos & OrgansMusical Instruments
Pipe Organ Foundation,4488 W Mercer Way,"Mercer Island, ",WA,98040,(206) 236-3492,http://www.pipeorganfoundation.org,Pianos & Organs
Telford Pianos,10607 NE 60th Ln,"Kirkland, ",WA,98033,(425) 822-7110,http://www.telfordpianos.com,Pianos & Organs
Northwest Pianos,13310 Bel Red Rd Ste 100,"Bellevue, ",WA,98005,(425) 241-8835,http://www.northwestpianos.com,Piano Parts & SuppliesMusic Schools
Wildes Pianos,135 7th Ave,"Kirkland, ",WA,98033,(425) 836-3860,http://wildespianos.com,"Pianos & Organ-Tuning, Repair &..."
Stage 7 Pianos,511 6th St S,"Kirkland, ",WA,98033,(425) 269-4910,http://stage7pianos.com,"Pianos & Organ-Tuning, Repair &..."
Sheris Music Studio,8048 NE 8th St,"Medina, ",WA,98039,(425) 637-0840,NA,Music Instruction-Instrumental
Davis Piano Service,310 120th Ave NE,"Bellevue, ",WA,98005,(425) 228-0260,http://davispiano.com,"Pianos & Organ-Tuning, Repair &..."
Mills Music,13500 Bel Red Rd Ste 8A,"Bellevue, ",WA,98005,(425) 643-3100,http://millsmusic.com,Musical Instrument Rental
Artisan Piano Services,227 Bellevue Way NE,"Bellevue, ",WA,98004,(425) 974-4100,http://www.artisanpianos.com,"Pianos & Organ-Tuning, Repair &..."
Prosser Piano & Organ,18503 Firlands Way N,"Shoreline, ",WA,98133,(206) 546-8959,http://www.prosserpiano.com,Pianos & OrgansMusical Instruments
Piano & Keyboard Center,13800 Bel Red Rd Ste 2,"Bellevue, ",WA,98005,(425) 643-8163,NA,Pianos & OrgansMusical Instruments
Black Piano,1411 156th Ave NE,"Bellevue, ",WA,98007,(425) 747-4353,NA,Pianos & Organs
Brian Lundell Piano Instruction,9715 164th Ave NE,"Redmond, ",WA,98052,(425) 558-7509,http://www.pianobrianlundell.com,Pianos & OrgansMusical Instruments
Keyboard Kids,16822 1st Ave NW,"Shoreline, ",WA,98177,(206) 546-5385,http://www.keyboardkidsmusic.com,Pianos & Organs
Willey Piano Tuning,19232 15th Ave NE,"Shoreline, ",WA,98155,(206) 307-4533,http://www.willeypianotuning.com,Pianos & Organs
Eastside Piano Studio,9755 NE 134th Pl,"Kirkland, ",WA,98034,(206) 718-9296,http://www.eastsidepianostudio.com,Pianos & Organs
Nino Merabishvili,15848 SE 12th Pl,"Bellevue, ",WA,98008,(206) 356-0120,NA,Pianos & Organs
Stage 7 Pianos,11831 124th Ave NE,"Kirkland, ",WA,98034,(425) 968-2410,NA,Pianos & Organs
Steinway and Sons,7345 164th Ave NE Ste I145,"Redmond, ",WA,98052,(425) 636-8976,NA,Pianos & OrgansMusical Instruments
Sebastian Piano Studio,14521 NE 67th Ct,"Redmond, ",WA,98052,(425) 558-4349,NA,Pianos & Organs
Island Piano Svc,11254 Sunrise Dr NE,"Bainbridge Island, ",WA,98110,(206) 842-3721,NA,"Pianos & Organ-Tuning, Repair &..."
Miller Music School,100 Glennwood Pl NE,"Renton, ",WA,98056,(206) 395-5761,http://millermusicschool.com,ViolinsPianos & OrgansMusic Stores
Galaxy Music Notes,109 NW 178th St,"Shoreline, ",WA,98177,(206) 629-4142,http://galaxymusicnotes.com/#zxlaa,Music Sheet
Donald Deneger,15328 SE 38th Pl,"Bellevue, ",WA,98006,(425) 747-5241,NA,Music Instruction-Instrumental
Mark Tunes Pianos,18128 Beall Rd SW,"Vashon, ",WA,98070,(206) 463-1622,NA,"Pianos & Organ-Tuning, Repair &..."
Stan Watkins Piano Studio,10709 NE 144th Ct,"Kirkland, ",WA,98034,(206) 919-4806,http://www.stanwatkinspiano.com,Music Instruction-Instrumental
Burien Piano Studio,14224 11th ave sw,"Burien, ",WA,98166,(206) 915-3044,http://www.burienpianostudio.com,"Pianos & Organ-Tuning, Repair &..."
Fandrich Darrell,16224 NE 28th St,"Bellevue, ",WA,98008,(425) 453-1820,NA,"Pianos & Organ-Tuning, Repair &..."
Puget Sound Piano Detailing,99 Williams Ave S,"Renton, ",WA,98057,(206) 351-7368,NA,"Pianos & Organ-Tuning, Repair &..."
North Pacific Organ & Sound,8539 154th Ave NE,"Redmond, ",WA,98052,(425) 558-0205,http://nporgansound.com,"Pianos & Organ-Tuning, Repair &..."
Best Piano Services,225 Williams Ave S,"Renton, ",WA,98057,(425) 228-0260,NA,"Pianos & Organ-Tuning, Repair &..."
Piano Tom,20400 NE Union Hill Rd,"Redmond, ",WA,98053,(425) 324-3324,http://www.pianotom.net,Piano Parts & Supplies
Vintage Pianos,20400 NE Union Hill Rd,"Redmond, ",WA,98053,(425) 999-3446,http://www.pianotom.net,"Pianos & Organ-Tuning, Repair &..."
Piano Teacher,2604 E 9th St,"Bremerton, ",WA,98310,(360) 649-1913,NA,Pianos & Organs
Pamela's Music Studio,20125 181st Pl. NE,"Woodinville, ",WA,98077,(206) 816-9742,http://www.pamelasmusicstudio.com,Pianos & Organs
Kennelly Keys Music,4918 196th St SW,"Lynnwood, ",WA,98036,(425) 771-7020,http://www.kennellykeysmusic.com,Musical Instruments
4/4 School Of Music,23006 13th Dr SE,"Bothell, ",WA,98021,(425) 485-8310,http://www.44school.com,Music Instruction-Instrumental
Langlois Pianos International Inc,5959 State Highway 303 NE Ste 102,"Bremerton, ",WA,98311,(360) 373-7727,http://www.langloispiano.com,"Pianos & Organ-Tuning, Repair &..."
Davis Piano Service,18818 116th Ave SE,"Renton, ",WA,98058,(425) 226-0102,http://www.davispiano.com,"Pianos & Organ-Tuning, Repair &..."
Johnny's,PO Box 2306,"Bremerton, ",WA,98310,(360) 698-3405,http://www.johnnyspianotuning.com,"Pianos & Organ-Tuning, Repair &..."
Cathy Baylor Piano Instrument,4622 180th Pl SW,"Lynnwood, ",WA,98037,(425) 771-1254,NA,Music Instruction-Instrumental
A-440 Piano Tuning & Repair,22022 NE 75th St,"Redmond, ",WA,98053,(425) 868-3000,http://www.manta.com/c/mm6pt0v/a-440-piano-tuning-repair,"Pianos & Organ-Tuning, Repair &..."
A Step Above Painting LLC,10225 SE 224th St,"Kent, ",WA,98031,(206) 420-9100,NA,Print AdvertisingRifle & Pistol Ranges
Vivace Piano P,18504 State Route 9 SE,"Snohomish, ",WA,98296,(360) 863-3385,NA,Pianos & OrgansMusical Instruments
Kelley Lyday Piano Studio,9206 168th St SE,"Snohomish, ",WA,98296,(360) 668-9132,NA,Pianos & Organs
Ken Owens Piano Service,1458 NE Odessa Way,"Poulsbo, ",WA,98370,(360) 779-8067,NA,"Pianos & Organ-Tuning, Repair &..."
Anna Tedesco-Lovino Piano Lssn,12363 SE 270th St,"Kent, ",WA,98030,(206) 240-7205,NA,Music Instruction-Instrumental
Fandrich & Sons Pianos,NA,NA,NA,NA,(360) 654-6305,http://www.fandrich.com,Musical InstrumentsPianos & Organs
Ben Gaffin Piano Tuning & Repair,NA,"Los Angeles, ",CA,90042,(323) 254-0562,http://www.bengpiano.com,Pianos & Organs
Piano Mart,1740 Westwood Blvd,"Los Angeles, ",CA,90024,(310) 474-8040,NA,Pianos & OrgansMusical Instruments
Piano Bar,6429 Selma Ave,"Los Angeles, ",CA,90028,(323) 466-2750,NA,Pianos & OrgansMusical Instruments
Sam Ash Music Store,8000 W Sunset Blvd,"Los Angeles, ",CA,90046,(323) 654-4922,http://www.yelp.com/biz/sam-ash-drums-and-percussion-los-angeles,Pianos & Organs
Piano Adoption Program,3637 Motor Ave Ste 240,"Los Angeles, ",CA,90034,(310) 558-3500,http://www.pianoadoptionprogram.org,Pianos & Organs
ER Music Gallery,3250 W Olympic Blvd,"Los Angeles, ",CA,90006,(323) 730-3400,http://www.erpiano.com,Pianos & OrgansMusical Instruments
Sherman Clay & Co,3330 Wilshire Blvd,"Los Angeles, ",CA,90010,(213) 387-7201,http://www.shermanclay.com,Pianos & Organs
KGE Music Corp.,3170 W Olympic Blvd,"Los Angeles, ",CA,90006,(323) 733-0177,NA,Pianos & OrgansMusical Instruments
Keyboard Concepts,8162 Beverly Blvd,"Los Angeles, ",CA,90048,(323) 651-3060,http://keyboardconcepts.com,Pianos & OrgansMusical Instruments
Pro Piano,1810 Parnell Ave,"Los Angeles, ",CA,90025,(310) 474-2216,NA,Pianos & OrgansMusical Instruments
Piano Mart,1810 Parnell Ave,"Los Angeles, ",CA,90025,(310) 474-8040,NA,Pianos & OrgansMusical Instruments
Krell Piano & Musical Instrument Rentals,10943 W Pico Blvd,"Los Angeles, ",CA,90064,(310) 470-6602,NA,Pianos & Organs
David Andersen Pianos,3587 Ocean View Ave,"Los Angeles, ",CA,90066,(310) 457-5604,http://www.davidandersenpianos.com,Pianos & Organs
Piano Lessons La,1113 S Barrington Ave,"Los Angeles, ",CA,90049,(310) 207-2943,http://www.luyepiano.com,Pianos & Organs
Field's Pianos Home,1450 S Bundy Dr,"Los Angeles, ",CA,90025,(310) 207-2400,NA,Pianos & OrgansMusical Instruments
Nunley Pianos of Art,NA,"Los Angeles, ",CA,90036,(323) 931-1709,NA,Pianos & Organs
Katz Steve-Piano Instruction,3744 Bagley Ave Apt 8,"Los Angeles, ",CA,90034,(310) 838-7711,NA,Pianos & Organs
Stephen Anderson-Registered Piano Technician,1927 Pelham Ave,"Los Angeles, ",CA,90025,(425) 749-8604,NA,Pianos & Organs
Pierre's Fine Pianos,11039 W Pico Blvd,"Los Angeles, ",CA,90064,(310) 473-0600,http://www.pierresfinepianos.com,Pianos & OrgansMusical Instruments
L.A. Piano,1701 S Vermont Ave,"Los Angeles, ",CA,90006,(323) 737-4989,http://www.rockwell-la.com,Pianos & Organs
Williamson-Warne & Associates,1334 N Spaulding Ave,"Los Angeles, ",CA,90046,(323) 851-6538,NA,Pianos & Organs
Williamson-Warne & Assoc,NA,"Los Angeles, ",CA,90078,(323) 851-6538,http://www.williamsonwarne.com,Pianos & OrgansMusical Instruments
Rosales Organ Builders Inc,3020 E Olympic Blvd,"Los Angeles, ",CA,90023,(323) 262-9253,http://www.rosales.com,Pianos & OrgansMusical Instruments
Piano & Piano Sportswear,2171 E 25th St,"Los Angeles, ",CA,90058,(323) 583-3033,NA,Pianos & OrgansMusical Instruments
Songsmith LA,4062 Garden Ave,"Los Angeles, ",CA,90039,(323) 543-5652,NA,Piano Parts & Supplies
Piano Lessons With Valery Goldes,1724 N Highland Ave,"Los Angeles, ",CA,90028,(646) 271-3989,http://www.pianowithvalerygoldes.com,Music Instruction-Instrumental
Hanmi Piano,3170 W Olympic Blvd,"Los Angeles, ",CA,90006,(213) 483-8949,http://www.hanmipiano.com,"Pianos & Organ-Tuning, Repair &..."
Piano Tuning Expert,11804 Tennessee Ave,"Los Angeles, ",CA,90064,(310) 594-5338,NA,"Pianos & Organ-Tuning, Repair &..."
Curtis Piano Service,4334 York Blvd,"Los Angeles, ",CA,90041,(323) 350-0104,NA,"Pianos & Organ-Tuning, Repair &..."
GL Pianos / The Piano Warehouse,NA,"Los Angeles, ",CA,90046,(310) 477-7195,http://www.glpianos.com,"Pianos & Organ-Tuning, Repair &..."
Ahn's Piano,1027 S Western Ave,"Los Angeles, ",CA,90006,(323) 733-7000,http://www.ahnspiano.com,Piano Parts & Supplies
Bluthner Pianos,337 N Larchmont Blvd,"Los Angeles, ",CA,90004,(323) 466-7707,http://bluthnerlosangeles.com,"Pianos & Organ-Tuning, Repair &..."
Nunley Pianos,1269 S Cochran Ave,"Los Angeles, ",CA,90019,(323) 931-1709,NA,"Pianos & Organ-Tuning, Repair &..."
Basias Piano Studio LA,6273 Crestwood Way,"Los Angeles, ",CA,90042,(224) 628-2869,NA,Piano Parts & Supplies
Ben Gaffin Pianos,1306 N Mission Rd,"Los Angeles, ",CA,90033,(323) 666-4007,NA,"Pianos & Organ-Tuning, Repair &..."
Sebelius Piano Tuning,525 S Ardmore Ave,"Los Angeles, ",CA,90020,(213) 387-2903,NA,"Pianos & Organ-Tuning, Repair &..."
"Paul's Piano Tuning, RPT",1735 Winona Blvd.,"Los Angeles, ",CA,90027,(323) 666-7721,http://paulspianotuning.wordpress.com,"Pianos & Organ-Tuning, Repair &..."
David Anderson Pianos,Mar Vis,"Los Angeles, ",CA,90066,(310) 391-4360,http://www.davidandersenpianos.com,"Pianos & Organ-Tuning, Repair &..."
Kohles Donald,723 N Occidental Blvd,"Los Angeles, ",CA,90026,(213) 413-2385,NA,"Pianos & Organ-Tuning, Repair &..."
"Velkov, Wes",1471 Silver Lake Blvd,"Los Angeles, ",CA,90026,(323) 666-1707,NA,"Pianos & Organ-Tuning, Repair &..."
Piano Service Group,2806 Eva Ter,"Los Angeles, ",CA,90031,(323) 225-7222,NA,"Pianos & Organ-Tuning, Repair &..."
A-Piano Tuning Service,3605 E 6th St,"Los Angeles, ",CA,90023,(323) 261-8640,NA,"Pianos & Organ-Tuning, Repair &..."
Karukas James,544 Terrill Ave,"Los Angeles, ",CA,90042,(323) 255-3578,NA,"Pianos & Organ-Tuning, Repair &..."
Hollywood Piano Company,NA,NA,NA,NA,(310) 657-8801,http://www.hollywoodpiano.com,Pianos & OrgansMusical Instruments
Gl Pianos,NA,"Van Nuys, ",CA,90046,(818) 884-3130,http://www.glpianos.com,"Pianos & Organ-Tuning, Repair &..."
A Robert Price Piano Tuning-Repair And Restoration,NA,NA,NA,NA,(323) 255-6905,http://robertpricepianotuning.com,"Pianos & Organ-Tuning, Repair &..."
Piano lessons for children and adults,NA,NA,NA,NA,(310) 756-5750,NA,Music SheetMusiciansPianos & Organs
Larcombe Garron Piano Tuner-Technician,NA,NA,NA,NA,(310) 477-7195,http://www.glpianos.com,"Pianos & Organ-Tuning, Repair &..."
Tone Wheel and Tone Cabinet Service Company,NA,NA,NA,NA,(310) 643-6656,http://www.hammondorganservice.com,"Pianos & Organ-Tuning, Repair &..."
Chung's Piano Tuning & Repair Center,NA,NA,NA,NA,(213) 384-4622,NA,"Pianos & Organ-Tuning, Repair &..."
Collins Piano Service,NA,NA,NA,NA,(213) 219-7167,http://www.collinspianoservice.com,"Pianos & Organ-Tuning, Repair &..."
Ben Gaffin Piano Service,NA,NA,NA,NA,(323) 254-0562,http://bengpiano.com,"Pianos & Organ-Tuning, Repair &..."
Muslar Frank,NA,NA,NA,NA,(323) 735-9030,NA,"Pianos & Organ-Tuning, Repair &..."
Garron R Larcobe Piano Tuner,NA,NA,NA,NA,(818) 884-3130,http://thepianowarehouse.com,"Pianos & Organ-Tuning, Repair &..."
Steinway & Sons,150 E Colorado Blvd,"Pasadena, ",CA,91105,(626) 744-7774,http://www.steinwaylosangeles.com,Pianos & OrgansMusical Instruments
Central Piano,1024 E Colorado St,"Glendale, ",CA,91205,(818) 548-4321,http://www.centralpiano.us,Pianos & Organs
Royal Piano,1617 W Glenoaks Blvd,"Glendale, ",CA,91201,(818) 956-9600,http://www.royalgifts.com,Pianos & OrgansMusical Instruments
Sweet 16 Musical Properties,323 S Front St,"Burbank, ",CA,91502,(818) 558-6203,http://www.hollywoodpiano.com,Pianos & Organs
Glendale Piano Teacher,134 N Cedar St,"Glendale, ",CA,91206,(323) 327-5674,http://glendalepianoteacher.com,Pianos & Organs
Steinway and Sons,8801 Wilshire Blvd,"Beverly Hills, ",CA,90211,(310) 652-6666,http://www.steinwaylosangeles.com,Pianos & Organs
Steinway Piano Gallery,8801 Wilshire Blvd,"Beverly Hills, ",CA,90211,(310) 652-6666,http://steinwaylosangeles.com,Pianos & Organs
William's Piano,113 W Las Tunas Dr Ste 101,"San Gabriel, ",CA,91776,(626) 287-7348,http://www.williamspianosgv.com,Pianos & OrgansMusical Instruments
Los Angeles Organ Company,1270 Lincoln Ave,"Pasadena, ",CA,91103,(626) 791-9193,http://www.losangelesorgan.com,Pianos & OrgansMusical Instruments
Santana Piano Movers,11333 Atlantic Ave,"Lynwood, ",CA,90262,(818) 787-2526,http://pianomovingcompanies.com,Pianos & OrgansMusical Instruments
Piano & Organ Town,112 W California Ave,"Glendale, ",CA,91203,(818) 240-8406,NA,Pianos & OrgansMusical Instruments
Teo's Piano,3467 Flower St,"Huntington Park, ",CA,90255,(323) 585-3651,http://www.teospiano.com,Pianos & Organs
Charles Crenshaw Pianos,816 N Hollywood Way,"Burbank, ",CA,91505,(818) 845-7674,http://charlescrenshaw.com,Pianos & Organs
Piano Prodigy,1409 Camelia Dr,"Alhambra, ",CA,91801,(626) 281-9912,NA,Pianos & Organs
Leah L Liu Piano Studio,681 S Marengo Ave,"Pasadena, ",CA,91106,(626) 818-4540,NA,Pianos & Organs
Piano Factory Warehouse Outlet,1033 N Hollywood Way,"Burbank, ",CA,91505,(800) 697-4266,NA,Pianos & Organs
Church Organs Inc,1270 Lincoln Ave Ste 100,"Pasadena, ",CA,91103,(626) 791-9193,http://www.losangelesorgan.com,Pianos & OrgansMusical Instruments
Robert Tall Associates Inc,604 N Verdugo Rd,"Glendale, ",CA,91206,(818) 507-8110,NA,Pianos & Organs
Keeling's Piano Studios,8260 Youngdale St,"San Gabriel, ",CA,91775,(626) 286-4593,NA,Pianos & Organs
William's Piano,219 E Las Tunas Dr,"San Gabriel, ",CA,91776,(626) 287-7348,NA,Musical Instruments
Johannes School Of Music,616 N Doheny Dr,"West Hollywood, ",CA,90069,(310) 860-9702,http://www.johannesschoolofmusic.net,Music Instruction-Instrumental
Precision Piano Services,10426 Magnolia Blvd,"North Hollywood, ",CA,91601,(818) 769-5902,http://www.precisionpiano.com,"Pianos & Organ-Tuning, Repair &..."
Ms. Regina's Music Studio,N Belmont St,"Glendale, ",CA,91206,(818) 839-1897,http://reginamusicstudio.com,Teaching AgenciesPianos & OrgansSchools
Five Star Music Corp,112 W California Ave,"Glendale, ",CA,91203,(818) 502-1739,http://www.fsmusicanddance.com,Music Instruction-Instrumental
Steinway Piano Gallery,314 N Robertson Blvd,"West Hollywood, ",CA,90048,(310) 652-6666,http://www.steinwaylosangeles.com,Musical Instrument Supplies &...
Piano Fest Austria,367 Monterey Rd,"South Pasadena, ",CA,91030,(323) 256-5363,NA,Musical Instrument Supplies &...
Scofield Sue Piano Studio,1604 Hillside Dr,"Glendale, ",CA,91208,(818) 243-3886,NA,Music Instruction-Instrumental
Hollywood Piano Company,323 S Front St,"Burbank, ",CA,91502,(800) 697-4266,http://www.hollywoodpiano.com,"Pianos & Organ-Tuning, Repair &..."
Pianist On Call,900 W Newmark Ave,"Monterey Park, ",CA,91754,(818) 681-5991,http://www.pianistoncall.com,Wedding Planning & Consultants
Piano Studio-Arlene Ferrolino,426 E Randolph St,"Glendale, ",CA,91207,(818) 291-9891,http://www.arleneferrolino.com,Music Instruction-Instrumental
Pianist and Organist For All Occasions,1243 Spazier Ave.,"Glendale, ",CA,91201,(818) 634-8419,http://hovseptorosian.webs.com,Party & Event Planners
Best Traditions School of Music,924 E Main St Ste 219,"Alhambra, ",CA,91801,(626) 943-9081,http://besttraditions.com,Music SchoolsPianos & Organs
So. California Music Company,806 N. Glendale Avenue,"Glendale, ",CA,91206,(818) 240-2251,http://www.socalmusicco.com,Music StoresMusical Instruments
JFC Custom Furniture Refinishing,2519 Lee Ave,"South El Monte, ",CA,91733,(626) 573-9880,http://www.jfcfurniture.com,Furniture Repair & Refinish
Mendez Piano Studio,209 N 6th St,"Montebello, ",CA,90640,(323) 721-2131,NA,Piano Parts & Supplies
Quality Piano Svc,8306 Wilshire Blvd # 292,"Beverly Hills, ",CA,90211,(310) 477-7195,http://www.thepianowarehouse.com,"Pianos & Organ-Tuning, Repair &..."
Levons Piano Service,324 W Loraine St,"Glendale, ",CA,91202,(818) 241-3624,http://www.levonspianoservice.com,"Pianos & Organ-Tuning, Repair &..."
Claude J Irwin,3860 Goldwyn Ter,"Culver City, ",CA,90232,(310) 559-6218,NA,"Pianos & Organ-Tuning, Repair &..."
Gregory Smith Piano Tuning,1708 W Clark Ave,"Burbank, ",CA,91506,(818) 840-9414,http://www.gregorysmithpianotuning.com,"Pianos & Organ-Tuning, Repair &..."
"Coward, Ollie",4915 Lindsey Ave,"Pico Rivera, ",CA,90660,(562) 692-2187,NA,"Pianos & Organ-Tuning, Repair &..."
Gonzales John J,4931 Durfee Ave,"Pico Rivera, ",CA,90660,(562) 695-0019,NA,"Pianos & Organ-Tuning, Repair &..."
"The Piano Shoppe, Inc","2000 South Myrtle Ave, Unit A","Monrovia, ",CA,91016,(626) 351-2077,http://www.pianoshoppe.us,Pianos & Organs
Xpert Furniture Refinishing Co.,12924 Yukon Ave,"Hawthorne, ",CA,90250,(310) 672-4319,NA,Pianos & Organs
Used Piano Liquidation Center,1271 S Baldwin Ave,"Arcadia, ",CA,91007,(626) 574-5885,NA,Pianos & Organs
Keyboard Concepts,3232 Santa Monica Blvd,"Santa Monica, ",CA,90404,(310) 586-5588,http://www.keyboardconcepts.com,Pianos & Organs
Church Keyboard Ctr,2295 E Foothill Blvd,"Pasadena, ",CA,91107,(909) 599-7899,NA,Pianos & Organs
Church Organs Inc,1144 Tierra Alta Dr,"Pasadena, ",CA,91104,(626) 791-9193,http://churchorgansinc.com,Pianos & Organs
Keyboard Concepts,3704 East Colorado Blvd.,"Pasadena, ",CA,91107,(626) 583-9126,http://www.keyboardconcepts.com,Pianos & OrgansMusical Instruments
Glendale Piano Movers,3411 Honolulu Ave,"La Crescenta, ",CA,91214,(818) 275-1254,NA,Pianos & Organs
Greenberg Piano Service Steinway,6130 Fulcher Ave,"North Hollywood, ",CA,91606,(818) 766-2115,NA,Pianos & Organs
Nunley Pianos of Art,1705 W 134th St Ste B,"Gardena, ",CA,90249,(310) 380-4677,NA,Pianos & Organs
Johnson Ted Piano Tnr,604 De Nova St # 2,"La Canada Flintridge, ",CA,91011,(818) 952-0289,NA,Pianos & Organs
Beard Janet Piano Studio,5222 Doreen Ave,"Temple City, ",CA,91780,(626) 444-1482,NA,Pianos & Organs
Piano Gallery,657 W Duarte Rd,"Arcadia, ",CA,91007,(626) 821-9191,NA,Pianos & OrgansMusical Instruments
Harris Organs,7047 Comstock Ave,"Whittier, ",CA,90602,(562) 693-4534,http://www.harrisorgans.com,Pianos & OrgansMusical Instruments
Niles Duncan Piano Rebuilding,2673 Glenrose Ave,"Altadena, ",CA,91001,(626) 791-4949,NA,Pianos & Organs
German Piano City,9520 1/2 Las Tunas Dr,"Temple City, ",CA,91780,(626) 286-9228,http://www.piano-tuner.us/index.html,Pianos & Organs
Piano Shoppe,615 Cliff Dr,"Pasadena, ",CA,91107,(626) 351-2077,http://www.pianoshoppe.us,"Pianos & Organ-Tuning, Repair &..."
South Bay Piano,1500 23rd St,"Manhattan Beach, ",CA,90266,(310) 546-7766,http://www.southbaypiano.com,"Pianos & Organ-Tuning, Repair &..."
Piano & Organ Studio,428 S Rosemead Blvd,"Pasadena, ",CA,91107,(626) 449-0892,NA,Music Instruction-Instrumental
Cool Kids Groove,3435 Ocean Park Blvd. #107-458,"Santa Monica, ",CA,90405,(424) 625-8503,http://www.coolkidsgroove.com,Music Instruction-Instrumental
A and Z Piano Company,1529 E Washington Blvd,"Pasadena, ",CA,91104,(626) 356-0199,http://www.hollywoodpiano.com,"Pianos & Organ-Tuning, Repair &..."
Cease Doreen Piano Studio,2717 Mary St,"La Crescenta, ",CA,91214,(818) 957-6921,NA,Music Instruction-Instrumental
J Piano Studio,3053 Foothill Blvd,"La Crescenta, ",CA,91214,(818) 248-2240,NA,Music Instruction-Instrumental
Juanita Joy Piano Teacher,2218 Glyndon Ave,"Venice, ",CA,90291,(310) 390-2378,NA,Music Instruction-Instrumental
Hewitt Pianos,13115 Downey Ave,"Paramount, ",CA,90723,(562) 923-2311,http://www.57piano.com,"Pianos & Organ-Tuning, Repair &..."
Kechishian Raffi Piano,3500 Mountain View Ave,"Pasadena, ",CA,91107,(626) 792-6564,http://www.raffipiano.com,"Pianos & Organ-Tuning, Repair &..."
Schroeder's Piano Svc,13115 Downey Ave,"Paramount, ",CA,90723,(562) 923-2311,http://www.57piano.com,"Pianos & Organ-Tuning, Repair &..."
a b c Music Center,4114 W Burbank Blvd,"Burbank, ",CA,91505,(818) 842-9495,NA,"Pianos & Organ-Tuning, Repair &..."
Schroeder Piano & Shroeder Pub,13119 Downey Ave,"Paramount, ",CA,90723,(562) 923-2311,http://57piano.com,"Pianos & Organ-Tuning, Repair &..."
Donald T Walker Registered Technician,14705 S Normandie Ave,"Gardena, ",CA,90247,(310) 523-9435,NA,"Pianos & Organ-Tuning, Repair &..."
Los Angeles Piano Tuning,2117 Oak St # B,"Santa Monica, ",CA,90405,(818) 522-5133,http://www.lapianotuning.com,"Pianos & Organ-Tuning, Repair &..."
